NORAD_CAT_ID,OBJECT_NAME,OBJECT_TYPE,EPOCH,MEAN_MOTION,ECCENTRICITY,INCLINATION,RA_OF_ASC_NODE,ARG_OF_PERICENTER,MEAN_ANOMALY,BSTAR,MEAN_MOTION_DOT,MEAN_MOTION_DDOT,TLE_LINE0,TLE_LINE1,TLE_LINE2,SEMIMAJOR_AXIS,PERIOD,APOGEE,PERIGEE,DECAYED
51783.0,STARLINK-3628,PAYLOAD,2023-07-05 00:29:24,15.08847061,0.000111,53.2177,52.5876,91.3145,268.7975,8.0325e-05,9.91e-06,0.0,0 STARLINK-3628,1 51783U 22017R   23186.02042683  .00000991  00000-0  80325-4 0  9992,2 51783  53.2177  52.5876 0001110  91.3145 268.7975 15.08847061 76311,6917.859,95.437,540.492,538.956,0.0
51783.0,STARLINK-3628,PAYLOAD,2023-07-05 08:26:21,15.08837754,0.0001011,53.2169,51.0997,90.8952,269.2156,2.8668e-06,-2.42e-06,0.0,0 STARLINK-3628,1 51783U 22017R   23186.35163467 -.00000242  00000-0  28668-5 0  9995,2 51783  53.2169  51.0997 0001011  90.8952 269.2156 15.08837754 76360,6917.887,95.438,540.452,539.053,0.0
51783.0,STARLINK-3628,PAYLOAD,2023-07-06 13:03:17,15.08840942,0.0001122,53.2176,45.7477,91.1315,268.9806,6.9365e-05,8.16e-06,0.0,0 STARLINK-3628,1 51783U 22017R   23187.54395270  .00000816  00000-0  69365-4 0  9990,2 51783  53.2176  45.7477 0001122  91.1315 268.9806 15.08840942 76542,6917.878,95.437,540.519,538.966,0.0
51783.0,STARLINK-3628,PAYLOAD,2023-07-06 21:00:12,15.08848539,0.0001143,53.2181,44.2606,93.5481,266.5642,7.2282e-05,8.63e-06,0.0,0 STARLINK-3628,1 51783U 22017R   23187.87514698  .00000863  00000-0  72282-4 0  9997,2 51783  53.2181  44.2606 0001143  93.5481 266.5642 15.08848539 76596,6917.854,95.437,540.51,538.929,0.0
51783.0,STARLINK-3628,PAYLOAD,2023-07-07 20:51:00,15.08839204,0.0001076,53.218,39.8006,94.5397,265.5718,8.7067e-05,1.098e-05,0.0,0 STARLINK-3628,1 51783U 22017R   23188.86875230  .00001098  00000-0  87067-4 0  9997,2 51783  53.2180  39.8006 0001076  94.5397 265.5718 15.08839204 76740,6917.883,95.438,540.492,539.003,0.0
51783.0,STARLINK-3628,PAYLOAD,2023-07-08 22:17:10,15.08840166,0.0001084,53.2179,35.0445,93.3512,266.7605,-2.5357e-05,-6.91e-06,0.0,0 STARLINK-3628,1 51783U 22017R   23189.92859637 -.00000691  00000-0 -25357-4 0  9992,2 51783  53.2179  35.0445 0001084  93.3512 266.7605 15.08840166 76903,6917.88,95.438,540.495,538.995,0.0
51783.0,STARLINK-3628,PAYLOAD,2023-07-10 12:26:26,15.08836053,0.000101,53.2176,27.9059,84.7574,275.3533,5.9411e-05,6.58e-06,0.0,0 STARLINK-3628,1 51783U 22017R   23191.51836025  .00000658  00000-0  59411-4 0  9995,2 51783  53.2176  27.9059 0001010  84.7574 275.3533 15.08836053 77145,6917.892,95.438,540.456,539.059,0.0
51783.0,STARLINK-3628,PAYLOAD,2023-07-10 21:58:44,15.08842415,0.0001051,53.2178,26.122,85.7725,274.3387,0.00010804,1.432e-05,0.0,0 STARLINK-3628,1 51783U 22017R   23191.91579514  .00001432  00000-0  10804-3 0  9999,2 51783  53.2178  26.1220 0001051  85.7725 274.3387 15.08842415 77204,6917.873,95.437,540.465,539.011,0.0
51783.0,STARLINK-3628,PAYLOAD,2023-07-11 21:49:32,15.08840108,0.0001198,53.2187,21.6608,98.5848,261.528,5.1182e-05,5.27e-06,0.0,0 STARLINK-3628,1 51783U 22017R   23192.90939913  .00000527  00000-0  51182-4 0  9991,2 51783  53.2187  21.6608 0001198  98.5848 261.5280 15.08840108 77357,6917.88,95.438,540.574,538.916,0.0
51783.0,STARLINK-3628,PAYLOAD,2023-07-13 18:20:19,15.08839181,0.0001088,53.218,13.3345,92.0757,268.0359,5.8746e-05,6.47e-06,0.0,0 STARLINK-3628,1 51783U 22017R   23194.76411965  .00000647  00000-0  58746-4 0  9995,2 51783  53.2180  13.3345 0001088  92.0757 268.0359 15.08839181 77631,6917.883,95.438,540.501,538.995,0.0
51783.0,STARLINK-3628,PAYLOAD,2023-07-14 05:28:02,15.08834911,0.0001047,53.2174,11.2526,93.8068,266.3044,-9.9837e-06,-4.47e-06,0.0,0 STARLINK-3628,1 51783U 22017R   23195.22780451 -.00000447  00000-0 -99837-5 0  9993,2 51783  53.2174  11.2526 0001047  93.8068 266.3044 15.08834911 77707,6917.896,95.438,540.485,539.037,0.0
51783.0,STARLINK-3628,PAYLOAD,2023-07-14 18:11:07,15.08840793,0.0001089,53.2172,8.8742,85.0649,275.0468,4.4573e-05,4.22e-06,0.0,0 STARLINK-3628,1 51783U 22017R   23195.75772028  .00000422  00000-0  44573-4 0  9999,2 51783  53.2172   8.8742 0001089  85.0649 275.0468 15.08840793 77781,6917.878,95.438,540.496,538.99,0.0
51783.0,STARLINK-3628,PAYLOAD,2023-07-14 21:21:52,15.08846353,0.0001111,53.2184,8.2804,85.5964,274.5155,8.1889e-05,1.016e-05,0.0,0 STARLINK-3628,1 51783U 22017R   23195.89019554  .00001016  00000-0  81889-4 0  9993,2 51783  53.2184   8.2804 0001111  85.5964 274.5155 15.08846353 77806,6917.861,95.437,540.495,538.957,0.0
51783.0,STARLINK-3628,PAYLOAD,2023-07-15 18:01:54,15.08836255,0.0001001,53.2172,4.414,85.9575,274.1532,5.8718e-05,6.47e-06,0.0,0 STARLINK-3628,1 51783U 22017R   23196.75132401  .00000647  00000-0  58718-4 0  9990,2 51783  53.2172   4.4140 0001001  85.9575 274.1532 15.08836255 77933,6917.892,95.438,540.449,539.064,0.0
51783.0,STARLINK-3628,PAYLOAD,2023-07-16 22:38:50,15.08848252,0.0001057,53.2188,359.062,82.9462,277.165,9.4775e-05,1.221e-05,0.0,0 STARLINK-3628,1 51783U 22017R   23197.94363823  .00001221  00000-0  94775-4 0  9998,2 51783  53.2188 359.0620 0001057  82.9462 277.1650 15.08848252 78110,6917.855,95.437,540.451,538.989,0.0
51783.0,STARLINK-3628,PAYLOAD,2023-07-17 09:46:33,15.08828058,6.34e-05,53.2184,356.9808,99.5205,260.5859,2.5862e-05,1.24e-06,0.0,0 STARLINK-3628,1 51783U 22017R   23198.40733318  .00000124  00000-0  25862-4 0  9992,2 51783  53.2184 356.9808 0000634  99.5205 260.5859 15.08828058 78185,6917.917,95.438,540.22,539.343,0.0
51783.0,STARLINK-3628,PAYLOAD,2023-07-17 17:43:28,15.08845503,0.000103,53.2182,355.4945,92.9124,267.1986,0.0001036,1.362e-05,0.0,0 STARLINK-3628,1 51783U 22017R   23198.73852101  .00001362  00000-0  10360-3 0  9991,2 51783  53.2182 355.4945 0001030  92.9124 267.1986 15.08845503 78231,6917.864,95.437,540.441,539.016,0.0
51783.0,STARLINK-3628,PAYLOAD,2023-07-17 20:54:14,15.08850882,0.000101,53.218,354.8988,89.404,270.7068,0.00014506,2.022e-05,0.0,0 STARLINK-3628,1 51783U 22017R   23198.87099643  .00002022  00000-0  14506-3 0  9990,2 51783  53.2180 354.8988 0001010  89.4040 270.7068 15.08850882 78254,6917.847,95.437,540.411,539.013,0.0
51783.0,STARLINK-3628,PAYLOAD,2023-07-18 22:20:24,15.08854394,0.0001145,53.2192,350.141,85.1692,274.9431,0.00015347,2.156e-05,0.0,0 STARLINK-3628,1 51783U 22017R   23199.93083463  .00002156  00000-0  15347-3 0  9993,2 51783  53.2192 350.1410 0001145  85.1692 274.9431 15.08854394 78411,6917.836,95.437,540.493,538.909,0.0
51783.0,STARLINK-3628,PAYLOAD,2023-07-19 09:28:07,15.08820405,0.0001212,53.2182,348.0589,93.3536,266.7595,-0.00017757,-3.111e-05,0.0,0 STARLINK-3628,1 51783U 22017R   23200.39453544 -.00003111  00000-0 -17757-3 0  9998,2 51783  53.2182 348.0589 0001212  93.3536 266.7595 15.08820405 78489,6917.94,95.439,540.644,538.967,0.0
51783.0,STARLINK-3628,PAYLOAD,2023-07-19 19:00:26,15.08829077,0.0001184,53.2174,346.275,112.3245,247.7872,-0.00014398,-2.578e-05,0.0,0 STARLINK-3628,1 51783U 22017R   23200.79197172 -.00002578  00000-0 -14398-3 0  9998,2 51783  53.2174 346.2750 0001184 112.3245 247.7872 15.08829077 78545,6917.914,95.438,540.598,538.96,0.0
51783.0,STARLINK-3628,PAYLOAD,2023-07-20 18:51:12,15.08849492,0.0001064,53.2178,341.815,96.8698,263.2415,0.00020925,3.045e-05,0.0,0 STARLINK-3628,1 51783U 22017R   23201.78556649  .00003045  00000-0  20925-3 0  9997,2 51783  53.2178 341.8150 0001064  96.8698 263.2415 15.08849492 78694,6917.851,95.437,540.452,538.98,0.0
51783.0,STARLINK-3628,PAYLOAD,2023-07-21 09:09:41,15.08842529,0.0001423,53.2191,339.1336,123.9485,236.1643,0.00034373,5.187e-05,0.0,0 STARLINK-3628,1 51783U 22017R   23202.38173113  .00005187  00000-0  34373-3 0  9996,2 51783  53.2191 339.1336 0001423 123.9485 236.1643 15.08842529 78786,6917.873,95.437,540.722,538.753,0.0
51783.0,STARLINK-3628,PAYLOAD,2023-07-24 08:42:02,15.08835252,0.0001262,53.2184,325.7583,102.4875,257.6259,0.00011154,1.488e-05,0.0,0 STARLINK-3628,1 51783U 22017R   23205.36253246  .00001488  00000-0  11154-3 0  9995,2 51783  53.2184 325.7583 0001262 102.4875 257.6259 15.08835252 77593,6917.895,95.438,540.633,538.887,0.0
51783.0,STARLINK-3628,PAYLOAD,2023-07-25 13:18:59,15.0883596,8.79e-05,53.216,320.4046,87.5588,272.5505,0.00010459,1.377e-05,0.0,0 STARLINK-3628,1 51783U 22017R   23206.55485561  .00001377  00000-0  10459-3 0  9998,2 51783  53.2160 320.4046 0000879  87.5588 272.5505 15.08835960 77776,6917.893,95.438,540.366,539.15,0.0
51783.0,STARLINK-3628,PAYLOAD,2023-07-26 08:23:37,15.08838585,9.44e-05,53.2172,316.8381,90.5247,269.5854,0.0001494,2.091e-05,0.0,0 STARLINK-3628,1 51783U 22017R   23207.34973536  .00002091  00000-0  14940-3 0  9993,2 51783  53.2172 316.8381 0000944  90.5247 269.5854 15.08838585 77891,6917.885,95.438,540.403,539.097,0.0
51783.0,STARLINK-3628,PAYLOAD,2023-07-27 00:17:28,15.08845583,0.0001001,53.2178,313.8641,86.8903,273.2204,0.00026338,3.907e-05,0.0,0 STARLINK-3628,1 51783U 22017R   23208.01213195  .00003907  00000-0  26338-3 0  9997,2 51783  53.2178 313.8641 0001001  86.8903 273.2204 15.08845583 79636,6917.863,95.437,540.421,539.036,0.0
51783.0,STARLINK-3628,PAYLOAD,2023-07-27 08:14:24,15.08834141,0.0001058,53.217,312.3771,89.6879,270.4234,5.0428e-05,5.15e-06,0.0,0 STARLINK-3628,1 51783U 22017R   23208.34333821  .00000515  00000-0  50428-4 0  9992,2 51783  53.2170 312.3771 0001058  89.6879 270.4234 15.08834141 79686,6917.898,95.438,540.495,539.031,0.0
51783.0,STARLINK-3628,PAYLOAD,2023-07-28 16:02:07,15.08841542,0.0001159,53.2168,306.4299,79.3893,280.723,4.4251e-05,4.17e-06,0.0,0 STARLINK-3628,1 51783U 22017R   23209.66813779  .00000417  00000-0  44251-4 0  9991,2 51783  53.2168 306.4299 0001159  79.3893 280.7230 15.08841542 79881,6917.876,95.437,540.542,538.939,0.0
51783.0,STARLINK-3628,PAYLOAD,2023-07-30 10:57:32,15.08838061,0.000114,53.2174,298.4016,89.5515,270.5608,0.00010403,1.368e-05,0.0,0 STARLINK-3628,1 51783U 22017R   23211.45662191  .00001368  00000-0  10403-3 0  9998,2 51783  53.2174 298.4016 0001140  89.5515 270.5608 15.08838061 80159,6917.886,95.438,540.54,538.963,0.0
